{"fetched_at":"2026-07-18T17:29:34.864Z","source":"https://celestrak.org/NORAD/elements/gp.php?GROUP=qianfan&FORMAT=JSON","constellation":"qianfan","records":[{"OBJECT_NAME":"QIANFAN-225","OBJECT_ID":"2026-155G","EPOCH":"2026-07-18T05:55:56.447904","CLASSIFICATION_TYPE":"U","MEAN_MOTION":14.22451026,"ECCENTRICITY":0.00292658,"INCLINATION":89.0064,"RA_OF_ASC_NODE":60.6005,"ARG_OF_PERICENTER":213.6162,"MEAN_ANOMALY":146.3174,"EPHEMERIS_TYPE":0,"NORAD_CAT_ID":69854,"ELEMENT_SET_NO":999,"REV_AT_EPOCH":181,"BSTAR":0.000087960282,"MEAN_MOTION_DOT":0.00000211,"MEAN_MOTION_DDOT":0},{"OBJECT_NAME":"QIANFAN-226","OBJECT_ID":"2026-155H","EPOCH":"2026-07-18T05:53:57.101856","CLASSIFICATION_TYPE":"U","MEAN_MOTION":14.22558888,"ECCENTRICITY":0.0030301,"INCLINATION":89.0063,"RA_OF_ASC_NODE":60.6003,"ARG_OF_PERICENTER":213.225,"MEAN_ANOMALY":146.704,"EPHEMERIS_TYPE":0,"NORAD_CAT_ID":69855,"ELEMENT_SET_NO":999,"REV_AT_EPOCH":181,"BSTAR":0.000049234626,"MEAN_MOTION_DOT":0.00000125,"MEAN_MOTION_DDOT":0},{"OBJECT_NAME":"QIANFAN-227","OBJECT_ID":"2026-155J","EPOCH":"2026-07-17T19:39:14.948064","CLASSIFICATION_TYPE":"U","MEAN_MOTION":14.20810576,"ECCENTRICITY":0.0029596,"INCLINATION":89.0057,"RA_OF_ASC_NODE":60.6476,"ARG_OF_PERICENTER":214.6719,"MEAN_ANOMALY":145.2543,"EPHEMERIS_TYPE":0,"NORAD_CAT_ID":69856,"ELEMENT_SET_NO":999,"REV_AT_EPOCH":175,"BSTAR":-1.0100914,"MEAN_MOTION_DOT":-0.0202495,"MEAN_MOTION_DDOT":0},{"OBJECT_NAME":"QIANFAN-228","OBJECT_ID":"2026-155K","EPOCH":"2026-07-17T19:38:04.300512","CLASSIFICATION_TYPE":"U","MEAN_MOTION":14.20885407,"ECCENTRICITY":0.00307899,"INCLINATION":89.0054,"RA_OF_ASC_NODE":60.6479,"ARG_OF_PERICENTER":216.5012,"MEAN_ANOMALY":143.4081,"EPHEMERIS_TYPE":0,"NORAD_CAT_ID":69857,"ELEMENT_SET_NO":999,"REV_AT_EPOCH":175,"BSTAR":-0.96549469,"MEAN_MOTION_DOT":-0.01944972,"MEAN_MOTION_DDOT":0},{"OBJECT_NAME":"QIANFAN-229","OBJECT_ID":"2026-155L","EPOCH":"2026-07-18T05:43:58.348992","CLASSIFICATION_TYPE":"U","MEAN_MOTION":14.26690081,"ECCENTRICITY":0.00307398,"INCLINATION":89.0064,"RA_OF_ASC_NODE":60.5994,"ARG_OF_PERICENTER":212.7783,"MEAN_ANOMALY":147.1505,"EPHEMERIS_TYPE":0,"NORAD_CAT_ID":69858,"ELEMENT_SET_NO":999,"REV_AT_EPOCH":181,"BSTAR":0.000079570815,"MEAN_MOTION_DOT":0.00000208,"MEAN_MOTION_DDOT":0},{"OBJECT_NAME":"QIANFAN-230","OBJECT_ID":"2026-155M","EPOCH":"2026-07-17T21:41:32.151840","CLASSIFICATION_TYPE":"U","MEAN_MOTION":14.16167691,"ECCENTRICITY":0.00329611,"INCLINATION":89.0054,"RA_OF_ASC_NODE":60.6411,"ARG_OF_PERICENTER":222.0372,"MEAN_ANOMALY":137.8286,"EPHEMERIS_TYPE":0,"NORAD_CAT_ID":69859,"ELEMENT_SET_NO":999,"REV_AT_EPOCH":176,"BSTAR":-1.0463152,"MEAN_MOTION_DOT":-0.01931944,"MEAN_MOTION_DDOT":0},{"OBJECT_NAME":"QIANFAN-231","OBJECT_ID":"2026-155N","EPOCH":"2026-07-18T05:49:13.618272","CLASSIFICATION_TYPE":"U","MEAN_MOTION":14.26096904,"ECCENTRICITY":0.00308202,"INCLINATION":89.0065,"RA_OF_ASC_NODE":60.6002,"ARG_OF_PERICENTER":212.12,"MEAN_ANOMALY":147.8116,"EPHEMERIS_TYPE":0,"NORAD_CAT_ID":69860,"ELEMENT_SET_NO":999,"REV_AT_EPOCH":181,"BSTAR":0.000076960693,"MEAN_MOTION_DOT":0.00000199,"MEAN_MOTION_DDOT":0},{"OBJECT_NAME":"QIANFAN-232","OBJECT_ID":"2026-155P","EPOCH":"2026-07-18T00:40:47.018208","CLASSIFICATION_TYPE":"U","MEAN_MOTION":14.26736537,"ECCENTRICITY":0.00305938,"INCLINATION":89.0063,"RA_OF_ASC_NODE":60.6233,"ARG_OF_PERICENTER":214.1355,"MEAN_ANOMALY":145.7872,"EPHEMERIS_TYPE":0,"NORAD_CAT_ID":69861,"ELEMENT_SET_NO":999,"REV_AT_EPOCH":178,"BSTAR":0.00007652291,"MEAN_MOTION_DOT":0.000002,"MEAN_MOTION_DDOT":0},{"OBJECT_NAME":"QIANFAN-233","OBJECT_ID":"2026-155Q","EPOCH":"2026-07-18T05:43:35.089248","CLASSIFICATION_TYPE":"U","MEAN_MOTION":14.26752454,"ECCENTRICITY":0.00305662,"INCLINATION":89.0064,"RA_OF_ASC_NODE":60.5994,"ARG_OF_PERICENTER":213.2043,"MEAN_ANOMALY":146.7233,"EPHEMERIS_TYPE":0,"NORAD_CAT_ID":69862,"ELEMENT_SET_NO":999,"REV_AT_EPOCH":181,"BSTAR":0.000061595801,"MEAN_MOTION_DOT":0.00000164,"MEAN_MOTION_DDOT":0},{"OBJECT_NAME":"QIANFAN-234","OBJECT_ID":"2026-155R","EPOCH":"2026-07-18T05:43:30.081504","CLASSIFICATION_TYPE":"U","MEAN_MOTION":14.26759078,"ECCENTRICITY":0.00305369,"INCLINATION":89.0065,"RA_OF_ASC_NODE":60.5995,"ARG_OF_PERICENTER":213.2656,"MEAN_ANOMALY":146.6619,"EPHEMERIS_TYPE":0,"NORAD_CAT_ID":69863,"ELEMENT_SET_NO":999,"REV_AT_EPOCH":181,"BSTAR":0.000073442454,"MEAN_MOTION_DOT":0.00000193,"MEAN_MOTION_DDOT":0},{"OBJECT_NAME":"QIANFAN-235","OBJECT_ID":"2026-155S","EPOCH":"2026-07-18T05:43:25.580064","CLASSIFICATION_TYPE":"U","MEAN_MOTION":14.26765036,"ECCENTRICITY":0.00304962,"INCLINATION":89.0064,"RA_OF_ASC_NODE":60.5993,"ARG_OF_PERICENTER":213.2857,"MEAN_ANOMALY":146.642,"EPHEMERIS_TYPE":0,"NORAD_CAT_ID":69864,"ELEMENT_SET_NO":999,"REV_AT_EPOCH":181,"BSTAR":0.000078538562,"MEAN_MOTION_DOT":0.00000205,"MEAN_MOTION_DDOT":0},{"OBJECT_NAME":"QIANFAN-236","OBJECT_ID":"2026-155T","EPOCH":"2026-07-18T05:43:21.694656","CLASSIFICATION_TYPE":"U","MEAN_MOTION":14.26770201,"ECCENTRICITY":0.00304669,"INCLINATION":89.0064,"RA_OF_ASC_NODE":60.5994,"ARG_OF_PERICENTER":213.304,"MEAN_ANOMALY":146.6238,"EPHEMERIS_TYPE":0,"NORAD_CAT_ID":69865,"ELEMENT_SET_NO":999,"REV_AT_EPOCH":181,"BSTAR":0.000069884684,"MEAN_MOTION_DOT":0.00000184,"MEAN_MOTION_DDOT":0},{"OBJECT_NAME":"QIANFAN-237","OBJECT_ID":"2026-155U","EPOCH":"2026-07-18T05:43:15.253536","CLASSIFICATION_TYPE":"U","MEAN_MOTION":14.26778379,"ECCENTRICITY":0.00304379,"INCLINATION":89.0064,"RA_OF_ASC_NODE":60.5994,"ARG_OF_PERICENTER":213.3453,"MEAN_ANOMALY":146.5825,"EPHEMERIS_TYPE":0,"NORAD_CAT_ID":69866,"ELEMENT_SET_NO":999,"REV_AT_EPOCH":180,"BSTAR":0.000065742137,"MEAN_MOTION_DOT":0.00000174,"MEAN_MOTION_DDOT":0},{"OBJECT_NAME":"QIANFAN-238","OBJECT_ID":"2026-155V","EPOCH":"2026-07-18T05:43:09.616800","CLASSIFICATION_TYPE":"U","MEAN_MOTION":14.26785865,"ECCENTRICITY":0.00304228,"INCLINATION":89.0064,"RA_OF_ASC_NODE":60.5994,"ARG_OF_PERICENTER":213.3775,"MEAN_ANOMALY":146.5502,"EPHEMERIS_TYPE":0,"NORAD_CAT_ID":69867,"ELEMENT_SET_NO":999,"REV_AT_EPOCH":181,"BSTAR":0.000067557518,"MEAN_MOTION_DOT":0.00000179,"MEAN_MOTION_DDOT":0}]}
