QIANFAN-225             
1 69854U 26155G   26199.24718111  .00000211  00000+0  87960-4 0  9990
2 69854  89.0064  60.6005 0029265 213.6162 146.3174 14.22451026  1816
QIANFAN-226             
1 69855U 26155H   26199.24579979  .00000125  00000+0  49235-4 0  9995
2 69855  89.0063  60.6003 0030301 213.2250 146.7040 14.22558888  1811
QIANFAN-227             
1 69856U 26155J   26198.81892301 -.02024950  00000+0 -10101+1 0  9997
2 69856  89.0057  60.6476 0029596 214.6719 145.2543 14.20810576  1756
QIANFAN-228             
1 69857U 26155K   26198.81810533 -.01944972  00000+0 -96549+0 0  9998
2 69857  89.0054  60.6479 0030789 216.5012 143.4081 14.20885407  1752
QIANFAN-229             
1 69858U 26155L   26199.23886978  .00000208  00000+0  79571-4 0  9995
2 69858  89.0064  60.5994 0030739 212.7783 147.1505 14.26690081  1810
QIANFAN-230             
1 69859U 26155M   26198.90384435 -.01931944  00000+0 -10463+1 0  9994
2 69859  89.0054  60.6411 0032961 222.0372 137.8286 14.16167691  1763
QIANFAN-231             
1 69860U 26155N   26199.24251873  .00000199  00000+0  76961-4 0  9998
2 69860  89.0065  60.6002 0030820 212.1200 147.8116 14.26096904  1813
QIANFAN-232             
1 69861U 26155P   26199.02832197  .00000200  00000+0  76523-4 0  9996
2 69861  89.0063  60.6233 0030593 214.1355 145.7872 14.26736537  1783
QIANFAN-233             
1 69862U 26155Q   26199.23860057  .00000164  00000+0  61596-4 0  9999
2 69862  89.0064  60.5994 0030566 213.2043 146.7233 14.26752454  1814
QIANFAN-234             
1 69863U 26155R   26199.23854261  .00000193  00000+0  73442-4 0  9995
2 69863  89.0065  60.5995 0030536 213.2656 146.6619 14.26759078  1810
QIANFAN-235             
1 69864U 26155S   26199.23849051  .00000205  00000+0  78539-4 0  9993
2 69864  89.0064  60.5993 0030496 213.2857 146.6420 14.26765036  1817
QIANFAN-236             
1 69865U 26155T   26199.23844554  .00000184  00000+0  69885-4 0  9997
2 69865  89.0064  60.5994 0030466 213.3040 146.6238 14.26770201  1818
QIANFAN-237             
1 69866U 26155U   26199.23837099  .00000174  00000+0  65742-4 0  9991
2 69866  89.0064  60.5994 0030437 213.3453 146.5825 14.26778379  1809
QIANFAN-238             
1 69867U 26155V   26199.23830575  .00000179  00000+0  67558-4 0  9996
2 69867  89.0064  60.5994 0030422 213.3775 146.5502 14.26785865  1812
